GLOBALSTAR M069         
1 31573U 07020C   26181.52836709 -.00000068  00000+0  23115-3 0  9995
2 31573  52.0002 214.3659 0002028 177.4741 335.0354 12.23471685880438
GLOBALSTAR M072         
1 31574U 07020D   26181.71716470 -.00000071  00000+0  18142-3 0  9997
2 31574  51.9938  64.2251 0001544   5.2903  28.6427 11.91658425876596
GLOBALSTAR M066         
1 32265U 07048C   26180.81949861 -.00000097  00000+0 -17873-4 0  9997
2 32265  51.9601  21.6487 0005654  70.5663 303.1764 12.30387146861786
GLOBALSTAR M079         
1 37188U 10054A   26180.95349677 -.00000091  00000+0  70791-4 0  9992
2 37188  52.0045  69.8078 0000971  50.9582 322.1092 12.62266282724165
GLOBALSTAR M074         
1 37189U 10054B   26181.61192583 -.00000081  00000+0  12638-3 0  9993
2 37189  52.0027  67.0661 0000766  71.8333 294.8986 12.62261924724853
GLOBALSTAR M076         
1 37190U 10054C   26181.72365093 -.00000092  00000+0  66671-4 0  9994
2 37190  52.0035  66.9306 0000993  67.3661 327.2065 12.62261939724589
GLOBALSTAR M077         
1 37191U 10054D   26181.23149631 -.00000093  00000+0 -27181-3 0  9993
2 37191  51.9933 146.1863 0002522 196.5323 268.4026 11.67547986722667
GLOBALSTAR M075         
1 37192U 10054E   26181.81245448 -.00000101  00000+0  15182-4 0  9999
2 37192  51.9944 108.7067 0000486  41.2293 337.2786 12.62267481723663
GLOBALSTAR M073         
1 37193U 10054F   26181.49346285 -.00000085  00000+0  10525-3 0  9991
2 37193  52.0077  23.7889 0001092  73.0755 293.5896 12.62266772725616
GLOBALSTAR M083         
1 37739U 11033A   26181.77278838 -.00000085  00000+0  10564-3 0  9997
2 37739  51.9878 331.1485 0000950  88.0049  49.9446 12.62263728694663
GLOBALSTAR M088         
1 37740U 11033B   26181.50275225 -.00000073  00000+0  17394-3 0  9992
2 37740  52.0197 238.4325 0000394 146.6106 322.1682 12.62269094690172
GLOBALSTAR M091         
1 37741U 11033C   26181.35607752 -.00000096  00000+0  42868-4 0  9990
2 37741  51.9967 201.8237 0000035 324.1113 138.6403 12.62264150690949
GLOBALSTAR M085         
1 37742U 11033D   26181.26492850 -.00000118  00000+0 -80969-4 0  9992
2 37742  52.0103 153.4032 0000420   6.2720 102.1410 12.62264202691447
GLOBALSTAR M081         
1 37743U 11033E   26181.12683287 -.00000115  00000+0 -63497-4 0  9998
2 37743  51.9933 156.2450 0000307  36.7140  43.6014 12.62265317691571
GLOBALSTAR M089         
1 37744U 11033F   26181.78778507 -.00000107  00000+0 -15404-4 0  9997
2 37744  51.9924 108.3890 0000544  79.7126 306.5158 12.62267390692509
GLOBALSTAR M084         
1 38040U 11080A   26181.82763417 -.00000098  00000+0  32681-4 0  9992
2 38040  52.0026 335.7560 0001081 108.1842  39.1325 12.62267682670485
GLOBALSTAR M080         
1 38041U 11080B   26181.17072565 -.00000102  00000+0  87551-5 0  9991
2 38041  52.0089 339.4786 0000428  77.2860  93.5785 12.62265245670528
GLOBALSTAR M082         
1 38042U 11080C   26181.73521578 -.00000084  00000+0  10926-3 0  9996
2 38042  52.0084 293.2634 0000421 108.7965  38.2241 12.62263785671309
GLOBALSTAR M092         
1 38043U 11080D   26181.60512204 -.00000089  00000+0  82738-4 0  9995
2 38043  52.0098  24.0564 0000842  82.9609 311.7854 12.62267234669749
GLOBALSTAR M090         
1 38044U 11080E   26181.68258669 -.00000081  00000+0  12435-3 0  9994
2 38044  52.0130 287.3838 0000553 105.3746  41.4336 12.62252712671410
GLOBALSTAR M086         
1 38045U 11080F   26181.70803439 -.00000066  00000+0  21299-3 0  9990
2 38045  51.9905 287.2137 0001684  89.9024  74.7360 12.62287392671364
GLOBALSTAR M097         
1 39072U 13005A   26181.46586323 -.00000092  00000+0  68022-4 0  9998
2 39072  52.0014 202.9153 0000134  64.2931 295.7949 12.62271297618582
GLOBALSTAR M093         
1 39073U 13005B   26181.35984855 -.00000095  00000+0  50040-4 0  9993
2 39073  52.0072 196.5889 0000288  35.2496 324.8389 12.62266180618526
GLOBALSTAR M094         
1 39074U 13005C   26181.83481457 -.00000115  00000+0 -63611-4 0  9999
2 39074  51.9953 109.2457 0000736  35.1612 324.9303 12.62268430620195
GLOBALSTAR M096         
1 39075U 13005D   26181.21485595 -.00000123  00000+0 -10507-3 0  9993
2 39075  52.0047 159.9450 0000355   9.2279 350.8594 12.62265664619032
GLOBALSTAR M078         
1 39076U 13005E   26181.50466921 -.00000012  00000+0  51406-3 0  9997
2 39076  51.9861 243.0563 0000539 287.1640  72.9167 12.62260150617691
GLOBALSTAR M095         
1 39077U 13005F   26181.53138189 -.00000064  00000+0  21929-3 0  9997
2 39077  52.0067 240.5978 0000075  14.7808 345.3061 12.62263818617558
GLOBALSTAR M087         
1 52888U 22064A   26181.54455852 -.00000099  00000+0  29217-4 0  9994
2 52888  52.0010  21.7870 0000916  64.3797 295.7165 12.62269254192824
